******** Week 108 almanac for PRN-19 ********
ID:                         19
Health:                     000
Eccentricity:               0.9244441986E-002
Time of Applicability(s):  61440.0000
Orbital Inclination(rad):   0.9807554104
Rate of Right Ascen(r/s):  -0.7840326581E-008
SQRT(A)  (m 1/2):           5153.587891
Right Ascen at Week(rad):   0.2271924791E+001
Argument of Perigee(rad):   1.821545635
Mean Anom(rad):            -0.1931608008E+001
Af0(s):                    -0.4768371582E-005
Af1(s/s):                   0.3637978807E-011
week:                        108

******** Week 108 almanac for PRN-20 ********
ID:                         20
Health:                     000
Eccentricity:               0.6058692932E-002
Time of Applicability(s):  61440.0000
Orbital Inclination(rad):   0.9377679957
Rate of Right Ascen(r/s):  -0.8080336578E-008
SQRT(A)  (m 1/2):           5151.656738
Right Ascen at Week(rad):  -0.2167471036E+001
Argument of Perigee(rad):   3.029243916
Mean Anom(rad):            -0.3334707952E+000
Af0(s):                     0.5226135254E-003
Af1(s/s):                   0.0000000000E+000
week:                        108

******** Week 108 almanac for PRN-21 ********
ID:                         21
Health:                     000
Eccentricity:               0.2410459518E-001
Time of Applicability(s):  61440.0000
Orbital Inclination(rad):   0.9572423612
Rate of Right Ascen(r/s):  -0.8057478483E-008
SQRT(A)  (m 1/2):           5153.643066
Right Ascen at Week(rad):   0.3140227950E+001
Argument of Perigee(rad):  -1.145769424
Mean Anom(rad):             0.2032658243E+001
Af0(s):                     0.1153945923E-003
Af1(s/s):                   0.3637978807E-011
week:                        108

******** Week 108 almanac for PRN-22 ********
ID:                         22
Health:                     000
Eccentricity:               0.7058143616E-002
Time of Applicability(s):  61440.0000
Orbital Inclination(rad):   0.9344423733
Rate of Right Ascen(r/s):  -0.8091765626E-008
SQRT(A)  (m 1/2):           5153.493652
Right Ascen at Week(rad):  -0.2121044523E+001
Argument of Perigee(rad):  -0.984993557
Mean Anom(rad):             0.8857473216E+000
Af0(s):                    -0.6237030029E-003
Af1(s/s):                   0.7275957614E-011
week:                        108

******** Week 108 almanac for PRN-23 ********
ID:                         23
Health:                     000
Eccentricity:               0.1144409180E-002
Time of Applicability(s):  61440.0000
Orbital Inclination(rad):   0.9637318189
Rate of Right Ascen(r/s):  -0.7783181344E-008
SQRT(A)  (m 1/2):           5153.604492
Right Ascen at Week(rad):  -0.2048658307E+001
Argument of Perigee(rad):   2.586691207
Mean Anom(rad):            -0.7298778710E+000
Af0(s):                     0.1096725464E-003
Af1(s/s):                  -0.3637978807E-011
week:                        108

******** Week 108 almanac for PRN-24 ********
ID:                         24
Health:                     000
Eccentricity:               0.1106405258E-001
Time of Applicability(s):  61440.0000
Orbital Inclination(rad):   0.9355209535
Rate of Right Ascen(r/s):  -0.8103194673E-008
SQRT(A)  (m 1/2):           5153.670898
Right Ascen at Week(rad):   0.2339545406E-002
Argument of Perigee(rad):   0.739315448
Mean Anom(rad):             0.3016729014E-001
Af0(s):                     0.5149841309E-004
Af1(s/s):                   0.2546585165E-010
week:                        108

******** Week 108 almanac for PRN-25 ********
ID:                         25
Health:                     000
Eccentricity:               0.9916782379E-002
Time of Applicability(s):  61440.0000
Orbital Inclination(rad):   0.9611791790
Rate of Right Ascen(r/s):  -0.7806039439E-008
SQRT(A)  (m 1/2):           5153.586426
Right Ascen at Week(rad):   0.1117131995E+001
Argument of Perigee(rad):   0.965633416
Mean Anom(rad):            -0.1960703833E+001
Af0(s):                     0.1296997070E-003
Af1(s/s):                   0.7275957614E-011
week:                        108

******** Week 108 almanac for PRN-26 ********
ID:                         26
Health:                     000
Eccentricity:               0.5797863007E-002
Time of Applicability(s):  61440.0000
Orbital Inclination(rad):   0.9421422378
Rate of Right Ascen(r/s):  -0.8000333246E-008
SQRT(A)  (m 1/2):           5153.745117
Right Ascen at Week(rad):   0.1075507411E+001
Argument of Perigee(rad):   0.303258939
Mean Anom(rad):            -0.2664442237E+001
Af0(s):                     0.8010864258E-004
Af1(s/s):                   0.3637978807E-011
week:                        108

******** Week 108 almanac for PRN-27 ********
ID:                         27
Health:                     000
Eccentricity:               0.9422779083E-002
Time of Applicability(s):  61440.0000
Orbital Inclination(rad):   0.9760096574
Rate of Right Ascen(r/s):  -0.7886042771E-008
SQRT(A)  (m 1/2):           5153.638184
Right Ascen at Week(rad):   0.2166162883E+001
Argument of Perigee(rad):   0.615832616
Mean Anom(rad):             0.1838635889E+001
Af0(s):                    -0.1230239868E-003
Af1(s/s):                  -0.7275957614E-011
week:                        108

******** Week 108 almanac for PRN-28 ********
ID:                         28
Health:                     000
Eccentricity:               0.1745748520E-001
Time of Applicability(s):  61440.0000
Orbital Inclination(rad):   0.9729536800
Rate of Right Ascen(r/s):  -0.7691748964E-008
SQRT(A)  (m 1/2):           5154.267090
Right Ascen at Week(rad):   0.1212674355E+001
Argument of Perigee(rad):  -1.338453664
Mean Anom(rad):             0.2492006468E+001
Af0(s):                     0.5779266357E-003
Af1(s/s):                  -0.7275957614E-011
week:                        108

******** Week 108 almanac for PRN-29 ********
ID:                         29
Health:                     000
Eccentricity:               0.1796722412E-002
Time of Applicability(s):  61440.0000
Orbital Inclination(rad):   0.9840810328
Rate of Right Ascen(r/s):  -0.7817468486E-008
SQRT(A)  (m 1/2):           5153.604004
Right Ascen at Week(rad):   0.2239149809E+001
Argument of Perigee(rad):   2.117958960
Mean Anom(rad):             0.2031610747E+001
Af0(s):                    -0.3404617310E-003
Af1(s/s):                  -0.7275957614E-011
week:                        108

******** Week 108 almanac for PRN-30 ********
ID:                         30
Health:                     000
Eccentricity:               0.5149841309E-002
Time of Applicability(s):  61440.0000
Orbital Inclination(rad):   0.9373605320
Rate of Right Ascen(r/s):  -0.8068907531E-008
SQRT(A)  (m 1/2):           5153.649414
Right Ascen at Week(rad):   0.9770251706E-001
Argument of Perigee(rad):  -2.797823664
Mean Anom(rad):            -0.1056761462E+001
Af0(s):                    -0.4205703735E-003
Af1(s/s):                  -0.3637978807E-011
week:                        108

******** Week 108 almanac for PRN-31 ********
ID:                         31
Health:                     000
Eccentricity:               0.9941577911E-002
Time of Applicability(s):  61440.0000
Orbital Inclination(rad):   0.9564693787
Rate of Right Ascen(r/s):  -0.7851755629E-008
SQRT(A)  (m 1/2):           5153.720703
Right Ascen at Week(rad):   0.9711379201E-001
Argument of Perigee(rad):   0.260683482
Mean Anom(rad):            -0.1471793147E+001
Af0(s):                    -0.1153945923E-003
Af1(s/s):                  -0.3637978807E-011
week:                        108

******** Week 108 almanac for PRN-32 ********
ID:                         32
Health:                     000
Eccentricity:               0.4918098450E-002
Time of Applicability(s):  61440.0000
Orbital Inclination(rad):   0.9570865662
Rate of Right Ascen(r/s):  -0.7806039439E-008
SQRT(A)  (m 1/2):           5153.610352
Right Ascen at Week(rad):  -0.9822944845E+000
Argument of Perigee(rad):  -2.377190852
Mean Anom(rad):             0.2584423193E+001
Af0(s):                     0.2193450928E-004
Af1(s/s):                   0.0000000000E+000
week:                        108

